{"_default": { "107": {"norad_id": "42831", "name": "FLYING LAPTOP", "tle1": "1 42831U 17042G   26163.85273672  .00005297  00000-0  41648-3 0  9999", "tle2": "2 42831  97.4663 319.5533 0019379 135.6939 224.5841 15.01121887485804", "object_type": "PAYLOAD", "criticality_score": 9.0, "last_updated": "2026-06-13T11:16:06.819600+00:00", "maneuver_count": 0, "owner": "GER"}, "146": {"norad_id": "27607", "name": "SAUDISAT 1C", "tle1": "1 27607U 02058C   26163.30015445  .00000989  00000-0  13385-3 0  9996", "tle2": "2 27607  64.5507 144.1057 0075372 263.3766  95.8757 14.83036938263737", "object_type": "PAYLOAD", "criticality_score": 9.0, "last_updated": "2026-06-13T11:16:06.819600+00:00", "maneuver_count": 0, "owner": "SAUD"}, "161": {"norad_id": "46495", "name": "SALSAT", "tle1": "1 46495U 20068K   26163.76299022  .00008507  00000-0  29790-3 0  9999", "tle2": "2 46495  97.8846 166.5583 0008406 326.8032  33.2678 15.29738569314684", "object_type": "PAYLOAD", "criticality_score": 9.0, "last_updated": "2026-06-13T11:16:06.819600+00:00", "maneuver_count": 0, "owner": "GER"}, "317": {"norad_id": "28371", "name": "SAUDISAT 2", "tle1": "1 28371U 04025F   26163.28940090  .00000263  00000-0  69889-4 0  9997", "tle2": "2 28371  98.5507 163.1447 0023789 313.9595  45.9639 14.56681326165030", "object_type": "PAYLOAD", "criticality_score": 9.0, "last_updated": "2026-06-13T11:16:06.819600+00:00", "maneuver_count": 0, "owner": "SAUD"}}}