OBJECT_NAME,OBJECT_ID,EPOCH,MEAN_MOTION,ECCENTRICITY,INCLINATION,RA_OF_ASC_NODE,ARG_OF_PERICENTER,MEAN_ANOMALY,EPHEMERIS_TYPE,CLASSIFICATION_TYPE,NORAD_CAT_ID,ELEMENT_SET_NO,REV_AT_EPOCH,BSTAR,MEAN_MOTION_DOT,MEAN_MOTION_DDOT
SAUDISAT 1C (SO-50),2002-058C,2026-06-12T07:12:13.344480,14.83036938,.00753718,64.5507,144.1057,263.3766,95.8757,0,U,27607,999,26373,.13385224E-3,.989E-5,0
SAUDISAT 2,2004-025F,2026-06-12T06:56:44.237760,14.56681326,.00237894,98.5507,163.1447,313.9595,45.9639,0,U,28371,999,16503,.69889094E-4,.263E-5,0
FLYING LAPTOP,2017-042G,2026-06-12T20:27:56.452608,15.01121887,.0019379,97.4663,319.5533,135.6939,224.5841,0,U,42831,999,48580,.41648E-3,.5297E-4,0
SALSAT,2020-068K,2026-06-12T18:18:42.355008,15.29738569,.0008406,97.8846,166.5583,326.8032,33.2678,0,U,46495,999,31468,.2979E-3,.8507E-4,0
